[Satellite]
VERSION=1.1
NAME=RANGE-A
NICKNAME=RANGE-A
TLE1=1 43773U 18099R   20156.71506582 -.00000211  00000-0 -14075-4 0  9996
TLE2=2 43773  97.7003 227.9683 0012546 222.1408 137.8849 14.94962728 82008
STATUS=0
